[{"OBJECT_NAME":"OBJECT D","OBJECT_ID":"2022-023D","EPOCH":"2026-03-09T23:24:15.634080","MEAN_MOTION":15.18234448,"ECCENTRICITY":0.01133038,"INCLINATION":63.4606,"RA_OF_ASC_NODE":248.8448,"ARG_OF_PERICENTER":353.4959,"MEAN_ANOMALY":6.4675,"EPHEMERIS_TYPE":0,"CLASSIFICATION_TYPE":"U","NORAD_CAT_ID":51949,"ELEMENT_SET_NO":999,"REV_AT_EPOCH":22265,"BSTAR":0.0002367106,"MEAN_MOTION_DOT":5.513e-5,"MEAN_MOTION_DDOT":0},{"OBJECT_NAME":"STARLINK-31420","OBJECT_ID":"2024-046Y","EPOCH":"2026-03-09T11:26:24.936000","MEAN_MOTION":15.30182009,"ECCENTRICITY":0.00013933,"INCLINATION":53.1591,"RA_OF_ASC_NODE":156.5581,"ARG_OF_PERICENTER":29.2244,"MEAN_ANOMALY":330.8835,"EPHEMERIS_TYPE":0,"CLASSIFICATION_TYPE":"U","NORAD_CAT_ID":59223,"ELEMENT_SET_NO":999,"REV_AT_EPOCH":11300,"BSTAR":2.0839412e-5,"MEAN_MOTION_DOT":2.58e-6,"MEAN_MOTION_DDOT":0}]
